[{"OBJECT_NAME":"AISTECHSAT 2","OBJECT_ID":"2018-099L","EPOCH":"2026-03-09T16:20:03.228288","MEAN_MOTION":15.14339272,"ECCENTRICITY":0.00032581,"INCLINATION":97.4431,"RA_OF_ASC_NODE":118.9026,"ARG_OF_PERICENTER":288.6059,"MEAN_ANOMALY":71.4819,"EPHEMERIS_TYPE":0,"CLASSIFICATION_TYPE":"U","NORAD_CAT_ID":43768,"ELEMENT_SET_NO":999,"REV_AT_EPOCH":39721,"BSTAR":0.00042226412,"MEAN_MOTION_DOT":7.677e-5,"MEAN_MOTION_DDOT":0},{"OBJECT_NAME":"STARLINK-2084","OBJECT_ID":"2021-005V","EPOCH":"2026-03-10T00:00:02.999808","MEAN_MOTION":15.1207585,"ECCENTRICITY":2.582e-5,"INCLINATION":53.0759,"RA_OF_ASC_NODE":60.1546,"ARG_OF_PERICENTER":161.2563,"MEAN_ANOMALY":166.4598,"EPHEMERIS_TYPE":0,"CLASSIFICATION_TYPE":"U","NORAD_CAT_ID":47368,"ELEMENT_SET_NO":999,"REV_AT_EPOCH":574,"BSTAR":0.004658,"MEAN_MOTION_DOT":0.00081703,"MEAN_MOTION_DDOT":0}]
